STARLINK-34146          
1 64098U 25110C   26068.18235348  .00012265  00000+0  42558-3 0  9994
2 64098  53.1606  29.2070 0001199  68.9679 291.1450 15.30196519 45804
2025-313BC              
1 67298U 25313BC  26068.18968176  .00075331  00000+0  26410-2 0  9997
2 67298  97.3985 144.8110 0008478 328.9209  31.1528 15.29126358  7890
